SAR-LUPE 2              
1 31797U 07030A   26158.52977311  .00035963  00000+0  67521-3 0  9993
2 31797  98.1027 261.7792 0008761 150.4695 209.7050 15.48496479 55440
SAPPHIRE                
1 39088U 13009C   26158.47147772  .00000126  00000+0  58876-4 0  9998
2 39088  98.4259 338.1583 0009986 279.0501  80.9554 14.35237927695187
PRAETORIAN SDA_602      
1 65565U 25203A   26158.33906229  .00000047  00000+0  31552-4 0  9995
2 65565  81.3037  19.8923 0005301 212.6379 147.4450 13.84342044 37336
PRAETORIAN SDA_603      
1 65566U 25203B   26158.36263727  .00000206  00000+0  17477-3 0  9994
2 65566  81.3041  19.7796 0008874 214.6340 145.4239 13.83903743 37349
PRAETORIAN SDA_604      
1 65567U 25203C   26158.37626685  .00000116  00000+0  95077-4 0  9995
2 65567  81.3059  20.1645 0004812 220.4841 139.5957 13.83046773 37327
PRAETORIAN SDA_605      
1 65568U 25203D   26158.34433836  .00000074  00000+0  56201-4 0  9996
2 65568  81.3025  19.8667 0007592 211.0342 149.0367 13.83433663 37330
PRAETORIAN SDA_606      
1 65569U 25203E   26158.32669510  .00000072  00000+0  54285-4 0  9993
2 65569  81.3061  20.1006 0005227 209.4508 150.6355 13.83406591 37325
PRAETORIAN SDA_607      
1 65570U 25203F   26158.12413388  .00000161  00000+0  13390-3 0  9993
2 65570  81.3047  19.9665 0008185 216.5663 143.4936 13.84283970 37314
PRAETORIAN SDA_608      
1 65571U 25203G   26158.31504698  .00000086  00000+0  67116-4 0  9992
2 65571  81.3013  19.9476 0005318 219.8639 140.2127 13.83816188 37322
PRAETORIAN SDA_609      
1 65572U 25203H   26158.32300146  .00000187  00000+0  15667-3 0  9991
2 65572  81.3056  19.9254 0006285 212.7624 147.3143 13.84284741 37336
PRAETORIAN SDA_610      
1 65573U 25203J   26158.36735359  .00000057  00000+0  40651-4 0  9992
2 65573  81.3014  19.8576 0005976 217.0479 143.0266 13.83851274 37338
PRAETORIAN SDA_611      
1 65574U 25203K   26158.36428530  .00000270  00000+0  23541-3 0  9998
2 65574  81.3021  20.0167 0004909 221.7672 138.3110 13.83306402 37321
PRAETORIAN SDA_612      
1 65575U 25203L   26158.36615573  .00000199  00000+0  16575-3 0  9993
2 65575  81.3038  19.6262 0008624 213.3920 146.6694 13.85036432 37358
PRAETORIAN SDA_613      
1 65576U 25203M   26158.36716896  .00000052  00000+0  36668-4 0  9998
2 65576  81.3006  20.0047 0005068 212.2833 147.8013 13.82764362 37323
PRAETORIAN SDA_614      
1 65577U 25203N   26158.35348411  .00000070  00000+0  51204-4 0  9995
2 65577  81.3021  19.7137 0006526 211.8546 148.2217 13.84777781 37357
PRAETORIAN SDA_615      
1 65578U 25203P   26158.32794230  .00000174  00000+0  14502-3 0  9991
2 65578  81.3031  19.6953 0008447 213.7029 146.3592 13.84436184 37348
PRAETORIAN SDA_616      
1 65579U 25203Q   26158.36320494  .00000203  00000+0  17467-3 0  9999
2 65579  81.3068  20.1568 0004834 219.6166 140.4637 13.83265821 37321
PRAETORIAN SDA_617      
1 65580U 25203R   26158.31163448  .00000068  00000+0  51605-4 0  9992
2 65580  81.3043  20.0373 0006778 212.2147 147.8595 13.83149983 37320
PRAETORIAN SDA_618      
1 65581U 25203S   26158.36791182  .00000178  00000+0  14739-3 0  9998
2 65581  81.3031  19.5914 0009085 214.9208 145.1354 13.84667402 37352
PRAETORIAN SDA_619      
1 65582U 25203T   26158.32543049  .00000187  00000+0  15854-3 0  9991
2 65582  81.3052  19.9123 0007577 213.7514 146.3161 13.83805085 37969
PRAETORIAN SDA_620      
1 65583U 25203U   26158.35208432  .00000171  00000+0  14417-3 0  9996
2 65583  81.3039  19.9073 0007078 208.8178 151.2588 13.83617791 37330
PRAETORIAN SDA_621      
1 65584U 25203V   26158.32717260  .00000091  00000+0  71820-4 0  9991
2 65584  81.3027  19.8519 0006866 206.5273 153.5533 13.83800653 37333
PRAETORIAN SDA_601      
1 65585U 25203W   26158.36562894  .00000178  00000+0  15133-3 0  9997
2 65585  81.3050  20.1015 0004812 226.2212 133.8547 13.83166729 37321
